{"type": "FeatureCollection", "features": [ {"type": "Feature", "properties": {"norad_id": 66855, "name": "STARLINK-36090", "group": "last-30-days", "lat": 0.4272518235943872, "lon": -67.84007623558402, "alt_km": 308.9569646960481, "timestamp": "2025-12-14T07:33:18.188812+00:00", "meta": {"OBJECT_NAME": "STARLINK-36090", "OBJECT_ID": "2025-281H", "EPOCH": "2025-12-13T08:08:04.879968", "MEAN_MOTION": 15.87671578, "ECCENTRICITY": 0.00108829, "INCLINATION": 43.0006, "RA_OF_ASC_NODE": 118.6375, "ARG_OF_PERICENTER": 159.1339, "MEAN_ANOMALY": 200.9981, "EPHEMERIS_TYPE": 0, "CLASSIFICATION_TYPE": "U", "NORAD_CAT_ID": 66855, "ELEMENT_SET_NO": 999, "REV_AT_EPOCH": 289, "BSTAR": -0.00590076, "MEAN_MOTION_DOT": -0.01435026, "MEAN_MOTION_DDOT": 0}, "tle": {"line1": "1 66855U 25281H   25347.33894537 -.01435026  00000+0 -59008-2 0  9997", "line2": "2 66855  43.0006 118.6375 0010882 159.1339 200.9981 15.87671578  2899"}}, "geometry": {"type": "Point", "coordinates": [-67.84007623558402, 0.4272518235943872]}}, {"type": "Feature", "properties": {"norad_id": 66856, "name": "STARLINK-36072", "group": "last-30-days", "lat": -9.789693470189842, "lon": -56.748989506664266, "alt_km": 307.0540097000503, "timestamp": "2025-12-14T07:33:18.188822+00:00", "meta": {"OBJECT_NAME": "STARLINK-36072", "OBJECT_ID": "2025-281J", "EPOCH": "2025-12-13T15:39:16.465824", "MEAN_MOTION": 15.89202166, "ECCENTRICITY": 0.00019829, "INCLINATION": 43.0006, "RA_OF_ASC_NODE": 116.6837, "ARG_OF_PERICENTER": 273.5542, "MEAN_ANOMALY": 86.5106, "EPHEMERIS_TYPE": 0, "CLASSIFICATION_TYPE": "U", "NORAD_CAT_ID": 66856, "ELEMENT_SET_NO": 999, "REV_AT_EPOCH": 294, "BSTAR": -0.0015813036, "MEAN_MOTION_DOT": -0.00449846, "MEAN_MOTION_DDOT": 0}, "tle": {"line1": "1 66856U 25281J   25347.65227391 -.00449846  00000+0 -15813-2 0  9991", "line2": "2 66856  43.0006 116.6837 0001982 273.5542  86.5106 15.89202166  2947"}}, "geometry": {"type": "Point", "coordinates": [-56.748989506664266, -9.789693470189842]}}, {"type": "Feature", "properties": {"norad_id": 66857, "name": "STARLINK-36083", "group": "last-30-days", "lat": -11.738319243730597, "lon": -54.54258683402288, "alt_km": 307.2275219173398, "timestamp": "2025-12-14T07:33:18.188833+00:00", "meta": {"OBJECT_NAME": "STARLINK-36083", "OBJECT_ID": "2025-281K", "EPOCH": "2025-12-13T14:08:08.515680", "MEAN_MOTION": 15.89388684, "ECCENTRICITY": 0.00027883, "INCLINATION": 43.0003, "RA_OF_ASC_NODE": 117.0695, "ARG_OF_PERICENTER": 291.2947, "MEAN_ANOMALY": 68.763, "EPHEMERIS_TYPE": 0, "CLASSIFICATION_TYPE": "U", "NORAD_CAT_ID": 66857, "ELEMENT_SET_NO": 999, "REV_AT_EPOCH": 293, "BSTAR": -0.0014284469, "MEAN_MOTION_DOT": -0.00412119, "MEAN_MOTION_DDOT": 0}, "tle": {"line1": "1 66857U 25281K   25347.58898745 -.00412119  00000+0 -14284-2 0  9995", "line2": "2 66857  43.0003 117.0695 0002788 291.2947  68.7630 15.89388684  2936"}}, "geometry": {"type": "Point", "coordinates": [-54.54258683402288, -11.738319243730597]}}, {"type": "Feature", "properties": {"norad_id": 66858, "name": "STARLINK-35118", "group": "last-30-days", "lat": -16.720086083102082, "lon": -48.64096093088528, "alt_km": 300.5501255824911, "timestamp": "2025-12-14T07:33:18.188842+00:00", "meta": {"OBJECT_NAME": "STARLINK-35118", "OBJECT_ID": "2025-281L", "EPOCH": "2025-12-13T06:35:03.524640", "MEAN_MOTION": 15.90299033, "ECCENTRICITY": 0.00033218, "INCLINATION": 43.0003, "RA_OF_ASC_NODE": 119.0123, "ARG_OF_PERICENTER": 249.825, "MEAN_ANOMALY": 110.2268, "EPHEMERIS_TYPE": 0, "CLASSIFICATION_TYPE": "U", "NORAD_CAT_ID": 66858, "ELEMENT_SET_NO": 999, "REV_AT_EPOCH": 288, "BSTAR": 0.00066906156, "MEAN_MOTION_DOT": 0.00215829, "MEAN_MOTION_DDOT": 0}, "tle": {"line1": "1 66858U 25281L   25347.27434635  .00215829  00000+0  66906-3 0  9992", "line2": "2 66858  43.0003 119.0123 0003321 249.8250 110.2268 15.90299033  2880"}}, "geometry": {"type": "Point", "coordinates": [-48.64096093088528, -16.720086083102082]}}, {"type": "Feature", "properties": {"norad_id": 66859, "name": "STARLINK-35646", "group": "last-30-days", "lat": -22.848393301732145, "lon": -40.589036508306556, "alt_km": 299.22258628137297, "timestamp": "2025-12-14T07:33:18.188854+00:00", "meta": {"OBJECT_NAME": "STARLINK-35646", "OBJECT_ID": "2025-281M", "EPOCH": "2025-12-13T02:03:04.878432", "MEAN_MOTION": 15.91285504, "ECCENTRICITY": 0.0004934, "INCLINATION": 43.0008, "RA_OF_ASC_NODE": 120.1773, "ARG_OF_PERICENTER": 14.9078, "MEAN_ANOMALY": 345.1942, "EPHEMERIS_TYPE": 0, "CLASSIFICATION_TYPE": "U", "NORAD_CAT_ID": 66859, "ELEMENT_SET_NO": 999, "REV_AT_EPOCH": 285, "BSTAR": 0.0018776805, "MEAN_MOTION_DOT": 0.00620337, "MEAN_MOTION_DDOT": 0.00015861515}, "tle": {"line1": "1 66859U 25281M   25347.08547313  .00620337  15862-3  18777-2 0  9992", "line2": "2 66859  43.0008 120.1773 0004934  14.9078 345.1942 15.91285504  2854"}}, "geometry": {"type": "Point", "coordinates": [-40.589036508306556, -22.848393301732145]}}, {"type": "Feature", "properties": {"norad_id": 66860, "name": "STARLINK-35987", "group": "last-30-days", "lat": -24.459385471677052, "lon": -38.26015346989042, "alt_km": 307.40693839941196, "timestamp": "2025-12-14T07:33:18.188868+00:00", "meta": {"OBJECT_NAME": "STARLINK-35987", "OBJECT_ID": "2025-281N", "EPOCH": "2025-12-13T15:33:33.797376", "MEAN_MOTION": 15.89330511, "ECCENTRICITY": 0.00019323, "INCLINATION": 43.0007, "RA_OF_ASC_NODE": 116.6502, "ARG_OF_PERICENTER": 260.9798, "MEAN_ANOMALY": 99.0857, "EPHEMERIS_TYPE": 0, "CLASSIFICATION_TYPE": "U", "NORAD_CAT_ID": 66860, "ELEMENT_SET_NO": 999, "REV_AT_EPOCH": 294, "BSTAR": -0.001692297, "MEAN_MOTION_DOT": -0.00482764, "MEAN_MOTION_DDOT": 0}, "tle": {"line1": "1 66860U 25281N   25347.64830784 -.00482764  00000+0 -16923-2 0  9990", "line2": "2 66860  43.0007 116.6502 0001932 260.9798  99.0857 15.89330511  2948"}}, "geometry": {"type": "Point", "coordinates": [-38.26015346989042, -24.459385471677052]}}, {"type": "Feature", "properties": {"norad_id": 66861, "name": "STARLINK-35991", "group": "last-30-days", "lat": -19.129754540140166, "lon": -45.60303788937882, "alt_km": 307.46012116856036, "timestamp": "2025-12-14T07:33:18.188878+00:00", "meta": {"OBJECT_NAME": "STARLINK-35991", "OBJECT_ID": "2025-281P", "EPOCH": "2025-12-13T14:05:17.957760", "MEAN_MOTION": 15.89447324, "ECCENTRICITY": 0.00024367, "INCLINATION": 43.0007, "RA_OF_ASC_NODE": 117.0527, "ARG_OF_PERICENTER": 286.8939, "MEAN_ANOMALY": 73.1668, "EPHEMERIS_TYPE": 0, "CLASSIFICATION_TYPE": "U", "NORAD_CAT_ID": 66861, "ELEMENT_SET_NO": 999, "REV_AT_EPOCH": 293, "BSTAR": -0.0015855614, "MEAN_MOTION_DOT": -0.00456454, "MEAN_MOTION_DDOT": 0}, "tle": {"line1": "1 66861U 25281P   25347.58701340 -.00456454  00000+0 -15856-2 0  9990", "line2": "2 66861  43.0007 117.0527 0002436 286.8939  73.1668 15.89447324  2938"}}, "geometry": {"type": "Point", "coordinates": [-45.60303788937882, -19.129754540140166]}}, {"type": "Feature", "properties": {"norad_id": 66862, "name": "STARLINK-35974", "group": "last-30-days", "lat": -17.195797818925275, "lon": -48.05173329958605, "alt_km": 306.9701573133525, "timestamp": "2025-12-14T07:33:18.188888+00:00", "meta": {"OBJECT_NAME": "STARLINK-35974", "OBJECT_ID": "2025-281Q", "EPOCH": "2025-12-13T15:36:30.124224", "MEAN_MOTION": 15.89289306, "ECCENTRICITY": 0.00021179, "INCLINATION": 43.0005, "RA_OF_ASC_NODE": 116.6675, "ARG_OF_PERICENTER": 264.7815, "MEAN_ANOMALY": 95.2817, "EPHEMERIS_TYPE": 0, "CLASSIFICATION_TYPE": "U", "NORAD_CAT_ID": 66862, "ELEMENT_SET_NO": 999, "REV_AT_EPOCH": 294, "BSTAR": -0.0015111809, "MEAN_MOTION_DOT": -0.00432667, "MEAN_MOTION_DDOT": 0}, "tle": {"line1": "1 66862U 25281Q   25347.65034866 -.00432667  00000+0 -15112-2 0  9996", "line2": "2 66862  43.0005 116.6675 0002117 264.7815  95.2817 15.89289306  2946"}}, "geometry": {"type": "Point", "coordinates": [-48.05173329958605, -17.195797818925275]}}, {"type": "Feature", "properties": {"norad_id": 66863, "name": "STARLINK-36134", "group": "last-30-days", "lat": -24.93230546732294, "lon": -37.55470709045197, "alt_km": 297.95281907765457, "timestamp": "2025-12-14T07:33:18.188898+00:00", "meta": {"OBJECT_NAME": "STARLINK-36134", "OBJECT_ID": "2025-281R", "EPOCH": "2025-12-13T09:32:53.648160", "MEAN_MOTION": 15.90340197, "ECCENTRICITY": 0.00045936, "INCLINATION": 43.0003, "RA_OF_ASC_NODE": 118.2156, "ARG_OF_PERICENTER": 236.9569, "MEAN_ANOMALY": 123.0865, "EPHEMERIS_TYPE": 0, "CLASSIFICATION_TYPE": "U", "NORAD_CAT_ID": 66863, "ELEMENT_SET_NO": 999, "REV_AT_EPOCH": 290, "BSTAR": 0.0018853581, "MEAN_MOTION_DOT": 0.00640569, "MEAN_MOTION_DDOT": 0}, "tle": {"line1": "1 66863U 25281R   25347.39784315  .00640569  00000+0  18854-2 0  9995", "line2": "2 66863  43.0003 118.2156 0004593 236.9569 123.0865 15.90340197  2901"}}, "geometry": {"type": "Point", "coordinates": [-37.55470709045197, -24.93230546732294]}}, {"type": "Feature", "properties": {"norad_id": 66864, "name": "STARLINK-36070", "group": "last-30-days", "lat": -25.583493239871895, "lon": -36.568420437226024, "alt_km": 301.8661285352364, "timestamp": "2025-12-14T07:33:18.188908+00:00", "meta": {"OBJECT_NAME": "STARLINK-36070", "OBJECT_ID": "2025-281S", "EPOCH": "2025-12-13T06:31:20.574624", "MEAN_MOTION": 15.90380504, "ECCENTRICITY": 0.00029883, "INCLINATION": 43.001, "RA_OF_ASC_NODE": 118.9904, "ARG_OF_PERICENTER": 246.7998, "MEAN_ANOMALY": 113.2562, "EPHEMERIS_TYPE": 0, "CLASSIFICATION_TYPE": "U", "NORAD_CAT_ID": 66864, "ELEMENT_SET_NO": 999, "REV_AT_EPOCH": 288, "BSTAR": 5.7561017e-05, "MEAN_MOTION_DOT": 0.00017671, "MEAN_MOTION_DDOT": 0}, "tle": {"line1": "1 66864U 25281S   25347.27176591  .00017671  00000+0  57561-4 0  9996", "line2": "2 66864  43.0010 118.9904 0002988 246.7998 113.2562 15.90380504  2887"}}, "geometry": {"type": "Point", "coordinates": [-36.568420437226024, -25.583493239871895]}}]}